SZ-21 MODULE            
1 66515U 25246C   25337.33312405  .00032620  00000+0  36812-3 0  9998
2 66515  41.4771  73.3983 0005832 205.8085 154.2464 15.61790567  2979
SHENZHOU-22             
1 66645U 25272A   25337.36113141  .00026743  00000+0  34172-3 0  9996
2 66645  41.4677  73.6192 0010070 319.5464  40.4624 15.58580261262579
CZ-2F R/B               
1 66646U 25272B   25330.47076975  .00449059  75676-5  29319-3 0  9998
2 66646  41.4431 114.9009 0121079 133.7676 227.3272 16.01945612   217
SOYUZ-MS 28             
1 66664U 25275A   25337.44684604  .00011600  00000+0  21633-3 0  9990
2 66664  51.6306 188.4862 0003633 200.0092 160.0755 15.49271748  1009
